{"type": "FeatureCollection", "features": [ {"type": "Feature", "properties": {"norad_id": 33905, "name": "COSMOS 2251 DEB", "group": "cosmos-2251-debris", "lat": -45.64751672940363, "lon": 147.1141401766228, "alt_km": 743.4659687648727, "timestamp": "2025-12-16T08:59:43.554504+00:00", "meta": {"OBJECT_NAME": "COSMOS 2251 DEB", "OBJECT_ID": "1993-036DJ", "EPOCH": "2025-12-15T22:11:28.020768", "MEAN_MOTION": 14.35398798, "ECCENTRICITY": 0.00586866, "INCLINATION": 73.887, "RA_OF_ASC_NODE": 310.7489, "ARG_OF_PERICENTER": 199.6032, "MEAN_ANOMALY": 222.7358, "EPHEMERIS_TYPE": 0, "CLASSIFICATION_TYPE": "U", "NORAD_CAT_ID": 33905, "ELEMENT_SET_NO": 999, "REV_AT_EPOCH": 87733, "BSTAR": 0.00049785438, "MEAN_MOTION_DOT": 1.43e-05, "MEAN_MOTION_DDOT": 0}, "tle": {"line1": "1 33905U 93036DJ  25349.92462987  .00001430  00000+0  49785-3 0  9994", "line2": "2 33905  73.8870 310.7489 0058686 199.6032 222.7358 14.35398798877334"}}, "geometry": {"type": "Point", "coordinates": [147.1141401766228, -45.64751672940363]}}, {"type": "Feature", "properties": {"norad_id": 33906, "name": "COSMOS 2251 DEB", "group": "cosmos-2251-debris", "lat": 35.19738921224904, "lon": -33.78022247339614, "alt_km": 684.1327496048489, "timestamp": "2025-12-16T08:59:43.554514+00:00", "meta": {"OBJECT_NAME": "COSMOS 2251 DEB", "OBJECT_ID": "1993-036DK", "EPOCH": "2025-12-15T23:13:46.255008", "MEAN_MOTION": 14.57150474, "ECCENTRICITY": 0.00367535, "INCLINATION": 74.03, "RA_OF_ASC_NODE": 315.3393, "ARG_OF_PERICENTER": 344.2749, "MEAN_ANOMALY": 78.6229, "EPHEMERIS_TYPE": 0, "CLASSIFICATION_TYPE": "U", "NORAD_CAT_ID": 33906, "ELEMENT_SET_NO": 999, "REV_AT_EPOCH": 88055, "BSTAR": 0.0014093892, "MEAN_MOTION_DOT": 6.392e-05, "MEAN_MOTION_DDOT": 0}, "tle": {"line1": "1 33906U 93036DK  25349.96789647  .00006392  00000+0  14094-2 0  9990", "line2": "2 33906  74.0300 315.3393 0036753 344.2749  78.6229 14.57150474880559"}}, "geometry": {"type": "Point", "coordinates": [-33.78022247339614, 35.19738921224904]}}, {"type": "Feature", "properties": {"norad_id": 33907, "name": "COSMOS 2251 DEB", "group": "cosmos-2251-debris", "lat": 19.337839174217876, "lon": 32.80288741103603, "alt_km": 750.4380241627177, "timestamp": "2025-12-16T08:59:43.554524+00:00", "meta": {"OBJECT_NAME": "COSMOS 2251 DEB", "OBJECT_ID": "1993-036DL", "EPOCH": "2025-12-15T02:50:05.464320", "MEAN_MOTION": 14.30529257, "ECCENTRICITY": 0.01120215, "INCLINATION": 74.0706, "RA_OF_ASC_NODE": 29.3321, "ARG_OF_PERICENTER": 84.1107, "MEAN_ANOMALY": 308.0001, "EPHEMERIS_TYPE": 0, "CLASSIFICATION_TYPE": "U", "NORAD_CAT_ID": 33907, "ELEMENT_SET_NO": 999, "REV_AT_EPOCH": 86614, "BSTAR": 0.0010283551, "MEAN_MOTION_DOT": 2.846e-05, "MEAN_MOTION_DDOT": 0}, "tle": {"line1": "1 33907U 93036DL  25349.11811880  .00002846  00000+0  10284-2 0  9990", "line2": "2 33907  74.0706  29.3321 0112021  84.1107 308.0001 14.30529257866141"}}, "geometry": {"type": "Point", "coordinates": [32.80288741103603, 19.337839174217876]}}, {"type": "Feature", "properties": {"norad_id": 33908, "name": "COSMOS 2251 DEB", "group": "cosmos-2251-debris", "lat": 67.32014792407813, "lon": -24.62730929663878, "alt_km": 929.5479896270263, "timestamp": "2025-12-16T08:59:43.554535+00:00", "meta": {"OBJECT_NAME": "COSMOS 2251 DEB", "OBJECT_ID": "1993-036DM", "EPOCH": "2025-12-15T20:31:55.604352", "MEAN_MOTION": 14.07365366, "ECCENTRICITY": 0.02228522, "INCLINATION": 73.8377, "RA_OF_ASC_NODE": 200.2369, "ARG_OF_PERICENTER": 223.1874, "MEAN_ANOMALY": 135.1601, "EPHEMERIS_TYPE": 0, "CLASSIFICATION_TYPE": "U", "NORAD_CAT_ID": 33908, "ELEMENT_SET_NO": 999, "REV_AT_EPOCH": 85517, "BSTAR": 0.001312123, "MEAN_MOTION_DOT": 2.74e-05, "MEAN_MOTION_DDOT": 0}, "tle": {"line1": "1 33908U 93036DM  25349.85550468  .00002740  00000+0  13121-2 0  9990", "line2": "2 33908  73.8377 200.2369 0222852 223.1874 135.1601 14.07365366855174"}}, "geometry": {"type": "Point", "coordinates": [-24.62730929663878, 67.32014792407813]}}, {"type": "Feature", "properties": {"norad_id": 33911, "name": "COSMOS 2251 DEB", "group": "cosmos-2251-debris", "lat": 38.34381318023575, "lon": 167.81368620696566, "alt_km": 636.1015681165691, "timestamp": "2025-12-16T08:59:43.554545+00:00", "meta": {"OBJECT_NAME": "COSMOS 2251 DEB", "OBJECT_ID": "1993-036DQ", "EPOCH": "2025-12-15T21:58:39.324288", "MEAN_MOTION": 14.74936965, "ECCENTRICITY": 0.00141468, "INCLINATION": 74.0899, "RA_OF_ASC_NODE": 155.6679, "ARG_OF_PERICENTER": 93.9406, "MEAN_ANOMALY": 29.866, "EPHEMERIS_TYPE": 0, "CLASSIFICATION_TYPE": "U", "NORAD_CAT_ID": 33911, "ELEMENT_SET_NO": 999, "REV_AT_EPOCH": 88691, "BSTAR": 0.0014911198, "MEAN_MOTION_DOT": 0.00010016, "MEAN_MOTION_DDOT": 0}, "tle": {"line1": "1 33911U 93036DQ  25349.91573292  .00010016  00000+0  14911-2 0  9994", "line2": "2 33911  74.0899 155.6679 0014146  93.9406  29.8660 14.74936965886919"}}, "geometry": {"type": "Point", "coordinates": [167.81368620696566, 38.34381318023575]}}, {"type": "Feature", "properties": {"norad_id": 33912, "name": "COSMOS 2251 DEB", "group": "cosmos-2251-debris", "lat": -12.922188953650384, "lon": 179.11159366347408, "alt_km": 722.8409938604755, "timestamp": "2025-12-16T08:59:43.554555+00:00", "meta": {"OBJECT_NAME": "COSMOS 2251 DEB", "OBJECT_ID": "1993-036DR", "EPOCH": "2025-12-15T13:21:21.140352", "MEAN_MOTION": 14.51911557, "ECCENTRICITY": 0.0011398, "INCLINATION": 74.0333, "RA_OF_ASC_NODE": 184.419, "ARG_OF_PERICENTER": 263.3662, "MEAN_ANOMALY": 127.6731, "EPHEMERIS_TYPE": 0, "CLASSIFICATION_TYPE": "U", "NORAD_CAT_ID": 33912, "ELEMENT_SET_NO": 999, "REV_AT_EPOCH": 88474, "BSTAR": 0.00051181466, "MEAN_MOTION_DOT": 2.038e-05, "MEAN_MOTION_DDOT": 0}, "tle": {"line1": "1 33912U 93036DR  25349.55649468  .00002038  00000+0  51181-3 0  9990", "line2": "2 33912  74.0333 184.4190 0011398 263.3662 127.6731 14.51911557884744"}}, "geometry": {"type": "Point", "coordinates": [179.11159366347408, -12.922188953650384]}}, {"type": "Feature", "properties": {"norad_id": 33913, "name": "COSMOS 2251 DEB", "group": "cosmos-2251-debris", "lat": 26.861446243135564, "lon": -174.82672345271544, "alt_km": 740.4332439214932, "timestamp": "2025-12-16T08:59:43.554569+00:00", "meta": {"OBJECT_NAME": "COSMOS 2251 DEB", "OBJECT_ID": "1993-036DS", "EPOCH": "2025-12-14T22:36:44.358048", "MEAN_MOTION": 14.48495775, "ECCENTRICITY": 0.00481582, "INCLINATION": 74.0328, "RA_OF_ASC_NODE": 179.5185, "ARG_OF_PERICENTER": 281.6897, "MEAN_ANOMALY": 198.3772, "EPHEMERIS_TYPE": 0, "CLASSIFICATION_TYPE": "U", "NORAD_CAT_ID": 33913, "ELEMENT_SET_NO": 999, "REV_AT_EPOCH": 88489, "BSTAR": 0.00047894941, "MEAN_MOTION_DOT": 1.795e-05, "MEAN_MOTION_DDOT": 0}, "tle": {"line1": "1 33913U 93036DS  25348.94218007  .00001795  00000+0  47895-3 0  9990", "line2": "2 33913  74.0328 179.5185 0048158 281.6897 198.3772 14.48495775884896"}}, "geometry": {"type": "Point", "coordinates": [-174.82672345271544, 26.861446243135564]}}, {"type": "Feature", "properties": {"norad_id": 33914, "name": "COSMOS 2251 DEB", "group": "cosmos-2251-debris", "lat": 65.74000273040063, "lon": 48.36308481831365, "alt_km": 812.4921831339498, "timestamp": "2025-12-16T08:59:43.554581+00:00", "meta": {"OBJECT_NAME": "COSMOS 2251 DEB", "OBJECT_ID": "1993-036DT", "EPOCH": "2025-12-15T19:27:51.554304", "MEAN_MOTION": 13.71986741, "ECCENTRICITY": 0.03010057, "INCLINATION": 74.0912, "RA_OF_ASC_NODE": 10.0334, "ARG_OF_PERICENTER": 112.3269, "MEAN_ANOMALY": 57.7086, "EPHEMERIS_TYPE": 0, "CLASSIFICATION_TYPE": "U", "NORAD_CAT_ID": 33914, "ELEMENT_SET_NO": 999, "REV_AT_EPOCH": 84123, "BSTAR": 0.0002753398, "MEAN_MOTION_DOT": 3.26e-06, "MEAN_MOTION_DDOT": 0}, "tle": {"line1": "1 33914U 93036DT  25349.81101336  .00000326  00000+0  27534-3 0  9991", "line2": "2 33914  74.0912  10.0334 0301005 112.3269  57.7086 13.71986741841237"}}, "geometry": {"type": "Point", "coordinates": [48.36308481831365, 65.74000273040063]}}, {"type": "Feature", "properties": {"norad_id": 33915, "name": "COSMOS 2251 DEB", "group": "cosmos-2251-debris", "lat": -56.281217354597466, "lon": 2.0611184513958416, "alt_km": 856.0557970283999, "timestamp": "2025-12-16T08:59:43.554591+00:00", "meta": {"OBJECT_NAME": "COSMOS 2251 DEB", "OBJECT_ID": "1993-036DU", "EPOCH": "2025-12-15T12:05:20.345280", "MEAN_MOTION": 14.35089557, "ECCENTRICITY": 0.01042753, "INCLINATION": 74.0435, "RA_OF_ASC_NODE": 29.0418, "ARG_OF_PERICENTER": 120.8608, "MEAN_ANOMALY": 0.7388, "EPHEMERIS_TYPE": 0, "CLASSIFICATION_TYPE": "U", "NORAD_CAT_ID": 33915, "ELEMENT_SET_NO": 999, "REV_AT_EPOCH": 87797, "BSTAR": 0.00036600235, "MEAN_MOTION_DOT": 1.085e-05, "MEAN_MOTION_DDOT": 0}, "tle": {"line1": "1 33915U 93036DU  25349.50370770  .00001085  00000+0  36600-3 0  9995", "line2": "2 33915  74.0435  29.0418 0104275 120.8608   0.7388 14.35089557877975"}}, "geometry": {"type": "Point", "coordinates": [2.0611184513958416, -56.281217354597466]}}, {"type": "Feature", "properties": {"norad_id": 33916, "name": "COSMOS 2251 DEB", "group": "cosmos-2251-debris", "lat": -57.13383244421957, "lon": 8.349720087031105, "alt_km": 1016.8481883030508, "timestamp": "2025-12-16T08:59:43.554601+00:00", "meta": {"OBJECT_NAME": "COSMOS 2251 DEB", "OBJECT_ID": "1993-036DV", "EPOCH": "2025-12-15T19:53:03.154272", "MEAN_MOTION": 13.68617723, "ECCENTRICITY": 0.03252173, "INCLINATION": 74.0526, "RA_OF_ASC_NODE": 35.5134, "ARG_OF_PERICENTER": 206.9993, "MEAN_ANOMALY": 277.8354, "EPHEMERIS_TYPE": 0, "CLASSIFICATION_TYPE": "U", "NORAD_CAT_ID": 33916, "ELEMENT_SET_NO": 999, "REV_AT_EPOCH": 83933, "BSTAR": 0.00040084878, "MEAN_MOTION_DOT": 4.75e-06, "MEAN_MOTION_DDOT": 0}, "tle": {"line1": "1 33916U 93036DV  25349.82850873  .00000475  00000+0  40085-3 0  9992", "line2": "2 33916  74.0526  35.5134 0325217 206.9993 277.8354 13.68617723839333"}}, "geometry": {"type": "Point", "coordinates": [8.349720087031105, -57.13383244421957]}}]}